[
  {
    "OBJECT_NAME": "RTU MIREA 1 (RS51S)",
    "OBJECT_ID": "2024-199BC",
    "EPOCH": "2025-06-21T19:22:35.357952",
    "MEAN_MOTION": 15.34261514,
    "ECCENTRICITY": 0.0015604,
    "INCLINATION": 97.3533,
    "RA_OF_ASC_NODE": 41.3256,
    "ARG_OF_PERICENTER": 144.0374,
    "MEAN_ANOMALY": 216.1922,
    "EPHEMERIS_TYPE": 0,
    "CLASSIFICATION_TYPE": "U",
    "NORAD_CAT_ID": 61785,
    "ELEMENT_SET_NO": 999,
    "REV_AT_EPOCH": 7881,
    "BSTAR": 0.0003919,
    "MEAN_MOTION_DOT": 0.00012976,
    "MEAN_MOTION_DDOT": 0
  },
  {
    "OBJECT_NAME": "HADES-R",
    "OBJECT_ID": "2025-009CK",
    "EPOCH": "2025-06-21T04:33:04.788864",
    "MEAN_MOTION": 15.29866515,
    "ECCENTRICITY": 0.0003392,
    "INCLINATION": 97.4082,
    "RA_OF_ASC_NODE": 252.9539,
    "ARG_OF_PERICENTER": 80.4492,
    "MEAN_ANOMALY": 279.7132,
    "EPHEMERIS_TYPE": 0,
    "CLASSIFICATION_TYPE": "U",
    "NORAD_CAT_ID": 62690,
    "ELEMENT_SET_NO": 999,
    "REV_AT_EPOCH": 2392,
    "BSTAR": 0.00082036,
    "MEAN_MOTION_DOT": 0.00023702,
    "MEAN_MOTION_DDOT": 0
  },
  {
    "OBJECT_NAME": "HADES-ICM",
    "OBJECT_ID": "2025-052BN",
    "EPOCH": "2025-06-20T22:14:15.642816",
    "MEAN_MOTION": 15.2330364,
    "ECCENTRICITY": 0.0011097,
    "INCLINATION": 97.4312,
    "RA_OF_ASC_NODE": 65.9066,
    "ARG_OF_PERICENTER": 346.5378,
    "MEAN_ANOMALY": 13.5561,
    "EPHEMERIS_TYPE": 0,
    "CLASSIFICATION_TYPE": "U",
    "NORAD_CAT_ID": 63492,
    "ELEMENT_SET_NO": 999,
    "REV_AT_EPOCH": 1498,
    "BSTAR": 0.00077694,
    "MEAN_MOTION_DOT": 0.00018423,
    "MEAN_MOTION_DDOT": 0
  }
]