RTU MIREA 1 (RS51S)     
1 61785U 24199BC  25172.80735368  .00012976  00000+0  39190-3 0  9998
2 61785  97.3533  41.3256 0015604 144.0374 216.1922 15.34261514 78818
HADES-R                 
1 62690U 25009CK  25172.18963876  .00023702  00000+0  82036-3 0  9999
2 62690  97.4082 252.9539 0003392  80.4492 279.7132 15.29866515 23929
HADES-ICM               
1 63492U 25052BN  25171.92656994  .00018423  00000+0  77694-3 0  9997
2 63492  97.4312  65.9066 0011097 346.5378  13.5561 15.23303640 14988
